[
  {
    "OBJECT_NAME": "STARLINK-2116",
    "OBJECT_ID": "21017C",
    "EPOCH": "2025-11-11T08:00:03.000384",
    "MEAN_MOTION": 15.43037532,
    "ECCENTRICITY": 0.0001608,
    "INCLINATION": 53.0541,
    "RA_OF_ASC_NODE": 299.9928,
    "ARG_OF_PERICENTER": 74.0887,
    "MEAN_ANOMALY": 273.4569,
    "EPHEMERIS_TYPE": 0,
    "CLASSIFICATION_TYPE": "U",
    "NORAD_CAT_ID": 47724,
    "ELEMENT_SET_NO": 999,
    "REV_AT_EPOCH": 585,
    "BSTAR": 0.0017998,
    "MEAN_MOTION_DOT": 0.00081108,
    "MEAN_MOTION_DDOT": 0.0,
    "TLE_LINE1": "1 47724U 21017C   25315.33336806  .00081108  00000+0  17998-2 0  9996",
    "TLE_LINE2": "2 47724  53.0541 299.9928 0001608  74.0887 273.4569 15.43037532  5858",
    "COMMENT": "Grouped by shell and plane from TLE"
  },
  {
    "OBJECT_NAME": "STARLINK-30704",
    "OBJECT_ID": "23148M",
    "EPOCH": "2025-11-11T05:55:13.317024",
    "MEAN_MOTION": 15.30193643,
    "ECCENTRICITY": 0.0001114,
    "INCLINATION": 53.161,
    "RA_OF_ASC_NODE": 291.6027,
    "ARG_OF_PERICENTER": 93.518,
    "MEAN_ANOMALY": 266.5948,
    "EPHEMERIS_TYPE": 0,
    "CLASSIFICATION_TYPE": "U",
    "NORAD_CAT_ID": 57946,
    "ELEMENT_SET_NO": 999,
    "REV_AT_EPOCH": 11918,
    "BSTAR": 8.996e-05,
    "MEAN_MOTION_DOT": 2.306e-05,
    "MEAN_MOTION_DDOT": 0.0,
    "TLE_LINE1": "1 57946U 23148M   25315.24668191  .00002306  00000+0  89960-4 0  9998",
    "TLE_LINE2": "2 57946  53.1610 291.6027 0001114  93.5180 266.5948 15.30193643119184",
    "COMMENT": "Grouped by shell and plane from TLE"
  },
  {
    "OBJECT_NAME": "STARLINK-31753",
    "OBJECT_ID": "24071A",
    "EPOCH": "2025-11-11T00:08:58.341984",
    "MEAN_MOTION": 15.27598033,
    "ECCENTRICITY": 0.000127,
    "INCLINATION": 43.0022,
    "RA_OF_ASC_NODE": 290.0869,
    "ARG_OF_PERICENTER": 274.92,
    "MEAN_ANOMALY": 85.1506,
    "EPHEMERIS_TYPE": 0,
    "CLASSIFICATION_TYPE": "U",
    "NORAD_CAT_ID": 59484,
    "ELEMENT_SET_NO": 999,
    "REV_AT_EPOCH": 9005,
    "BSTAR": 0.0,
    "MEAN_MOTION_DOT": -2.107e-05,
    "MEAN_MOTION_DDOT": 0.0,
    "TLE_LINE1": "1 59484U 24071A   25315.00623081 -.00002107  00000+0 -67012-4 0  9991",
    "TLE_LINE2": "2 59484  43.0022 290.0869 0001270 274.9200  85.1506 15.27598033 90053",
    "COMMENT": "Grouped by shell and plane from TLE"
  },
  {
    "OBJECT_NAME": "STARLINK-31754",
    "OBJECT_ID": "24071E",
    "EPOCH": "2025-11-10T23:36:20.185344",
    "MEAN_MOTION": 15.27565853,
    "ECCENTRICITY": 0.0001307,
    "INCLINATION": 43.0,
    "RA_OF_ASC_NODE": 297.6951,
    "ARG_OF_PERICENTER": 274.9167,
    "MEAN_ANOMALY": 85.1535,
    "EPHEMERIS_TYPE": 0,
    "CLASSIFICATION_TYPE": "U",
    "NORAD_CAT_ID": 59488,
    "ELEMENT_SET_NO": 999,
    "REV_AT_EPOCH": 8996,
    "BSTAR": 0.00020707,
    "MEAN_MOTION_DOT": 5.438e-05,
    "MEAN_MOTION_DDOT": 0.0,
    "TLE_LINE1": "1 59488U 24071E   25314.98356696  .00005438  00000+0  20707-3 0  9993",
    "TLE_LINE2": "2 59488  43.0000 297.6951 0001307 274.9167  85.1535 15.27565853 89965",
    "COMMENT": "Grouped by shell and plane from TLE"
  },
  {
    "OBJECT_NAME": "STARLINK-31670",
    "OBJECT_ID": "24071G",
    "EPOCH": "2025-11-11T06:32:57.777216",
    "MEAN_MOTION": 15.27590493,
    "ECCENTRICITY": 6.33e-05,
    "INCLINATION": 43.0001,
    "RA_OF_ASC_NODE": 299.9113,
    "ARG_OF_PERICENTER": 172.4295,
    "MEAN_ANOMALY": 187.6566,
    "EPHEMERIS_TYPE": 0,
    "CLASSIFICATION_TYPE": "U",
    "NORAD_CAT_ID": 59490,
    "ELEMENT_SET_NO": 999,
    "REV_AT_EPOCH": 8996,
    "BSTAR": 0.00012515,
    "MEAN_MOTION_DOT": 3.185e-05,
    "MEAN_MOTION_DDOT": 0.0,
    "TLE_LINE1": "1 59490U 24071G   25315.27289094  .00003185  00000+0  12515-3 0  9991",
    "TLE_LINE2": "2 59490  43.0001 299.9113 0000633 172.4295 187.6566 15.27590493 89969",
    "COMMENT": "Grouped by shell and plane from TLE"
  },
  {
    "OBJECT_NAME": "STARLINK-31712",
    "OBJECT_ID": "24071H",
    "EPOCH": "2025-11-11T06:34:48.542880",
    "MEAN_MOTION": 15.27598207,
    "ECCENTRICITY": 5.8e-05,
    "INCLINATION": 43.0023,
    "RA_OF_ASC_NODE": 299.8984,
    "ARG_OF_PERICENTER": 248.9218,
    "MEAN_ANOMALY": 111.1572,
    "EPHEMERIS_TYPE": 0,
    "CLASSIFICATION_TYPE": "U",
    "NORAD_CAT_ID": 59491,
    "ELEMENT_SET_NO": 999,
    "REV_AT_EPOCH": 8996,
    "BSTAR": 6.614400000000001e-05,
    "MEAN_MOTION_DOT": 1.56e-05,
    "MEAN_MOTION_DDOT": 0.0,
    "TLE_LINE1": "1 59491U 24071H   25315.27417295  .00001560  00000+0  66144-4 0  9991",
    "TLE_LINE2": "2 59491  43.0023 299.8984 0000580 248.9218 111.1572 15.27598207 89964",
    "COMMENT": "Grouped by shell and plane from TLE"
  },
  {
    "OBJECT_NAME": "STARLINK-31684",
    "OBJECT_ID": "24071J",
    "EPOCH": "2025-11-11T05:58:27.449184",
    "MEAN_MOTION": 15.27669109,
    "ECCENTRICITY": 0.0001256,
    "INCLINATION": 43.0014,
    "RA_OF_ASC_NODE": 296.2454,
    "ARG_OF_PERICENTER": 255.6889,
    "MEAN_ANOMALY": 104.3823,
    "EPHEMERIS_TYPE": 0,
    "CLASSIFICATION_TYPE": "U",
    "NORAD_CAT_ID": 59492,
    "ELEMENT_SET_NO": 999,
    "REV_AT_EPOCH": 9000,
    "BSTAR": 0.00079925,
    "MEAN_MOTION_DOT": 0.00021856,
    "MEAN_MOTION_DDOT": 0.0,
    "TLE_LINE1": "1 59492U 24071J   25315.24892881  .00021856  00000+0  79925-3 0  9997",
    "TLE_LINE2": "2 59492  43.0014 296.2454 0001256 255.6889 104.3823 15.27669109 90008",
    "COMMENT": "Grouped by shell and plane from TLE"
  },
  {
    "OBJECT_NAME": "STARLINK-31678",
    "OBJECT_ID": "24071K",
    "EPOCH": "2025-11-11T06:09:36.789120",
    "MEAN_MOTION": 15.27599468,
    "ECCENTRICITY": 8.74e-05,
    "INCLINATION": 42.9996,
    "RA_OF_ASC_NODE": 296.3001,
    "ARG_OF_PERICENTER": 281.5183,
    "MEAN_ANOMALY": 78.5571,
    "EPHEMERIS_TYPE": 0,
    "CLASSIFICATION_TYPE": "U",
    "NORAD_CAT_ID": 59493,
    "ELEMENT_SET_NO": 999,
    "REV_AT_EPOCH": 8882,
    "BSTAR": 0.0005998,
    "MEAN_MOTION_DOT": 0.00016289,
    "MEAN_MOTION_DDOT": 0.0,
    "TLE_LINE1": "1 59493U 24071K   25315.25667580  .00016289  00000+0  59980-3 0  9998",
    "TLE_LINE2": "2 59493  42.9996 296.3001 0000874 281.5183  78.5571 15.27599468 88824",
    "COMMENT": "Grouped by shell and plane from TLE"
  },
  {
    "OBJECT_NAME": "STARLINK-31744",
    "OBJECT_ID": "24071L",
    "EPOCH": "2025-11-11T06:04:03.157248",
    "MEAN_MOTION": 15.27605203,
    "ECCENTRICITY": 2e-05,
    "INCLINATION": 42.9998,
    "RA_OF_ASC_NODE": 296.2738,
    "ARG_OF_PERICENTER": 78.4474,
    "MEAN_ANOMALY": 281.64,
    "EPHEMERIS_TYPE": 0,
    "CLASSIFICATION_TYPE": "U",
    "NORAD_CAT_ID": 59494,
    "ELEMENT_SET_NO": 999,
    "REV_AT_EPOCH": 9000,
    "BSTAR": 7.511e-05,
    "MEAN_MOTION_DOT": 1.807e-05,
    "MEAN_MOTION_DDOT": 0.0,
    "TLE_LINE1": "1 59494U 24071L   25315.25281432  .00001807  00000+0  75110-4 0  9991",
    "TLE_LINE2": "2 59494  42.9998 296.2738 0000200  78.4474 281.6400 15.27605203 90008",
    "COMMENT": "Grouped by shell and plane from TLE"
  },
  {
    "OBJECT_NAME": "STARLINK-31719",
    "OBJECT_ID": "24071M",
    "EPOCH": "2025-11-11T00:27:28.286496",
    "MEAN_MOTION": 15.27594853,
    "ECCENTRICITY": 0.0001097,
    "INCLINATION": 43.0039,
    "RA_OF_ASC_NODE": 290.1847,
    "ARG_OF_PERICENTER": 258.0378,
    "MEAN_ANOMALY": 102.035,
    "EPHEMERIS_TYPE": 0,
    "CLASSIFICATION_TYPE": "U",
    "NORAD_CAT_ID": 59495,
    "ELEMENT_SET_NO": 999,
    "REV_AT_EPOCH": 9005,
    "BSTAR": 0.0,
    "MEAN_MOTION_DOT": -2.156e-05,
    "MEAN_MOTION_DDOT": 0.0,
    "TLE_LINE1": "1 59495U 24071M   25315.01907739 -.00002156  00000+0 -68804-4 0  9993",
    "TLE_LINE2": "2 59495  43.0039 290.1847 0001097 258.0378 102.0350 15.27594853 90058",
    "COMMENT": "Grouped by shell and plane from TLE"
  },
  {
    "OBJECT_NAME": "STARLINK-31535",
    "OBJECT_ID": "24071W",
    "EPOCH": "2025-11-10T23:58:32.978784",
    "MEAN_MOTION": 15.27579681,
    "ECCENTRICITY": 9.6e-05,
    "INCLINATION": 43.002,
    "RA_OF_ASC_NODE": 297.8079,
    "ARG_OF_PERICENTER": 270.7616,
    "MEAN_ANOMALY": 89.3125,
    "EPHEMERIS_TYPE": 0,
    "CLASSIFICATION_TYPE": "U",
    "NORAD_CAT_ID": 59504,
    "ELEMENT_SET_NO": 999,
    "REV_AT_EPOCH": 8996,
    "BSTAR": 0.00021484,
    "MEAN_MOTION_DOT": 5.654e-05,
    "MEAN_MOTION_DDOT": 0.0,
    "TLE_LINE1": "1 59504U 24071W   25314.99899281  .00005654  00000+0  21484-3 0  9998",
    "TLE_LINE2": "2 59504  43.0020 297.8079 0000960 270.7616  89.3125 15.27579681 89961",
    "COMMENT": "Grouped by shell and plane from TLE"
  },
  {
    "OBJECT_NAME": "STARLINK-31738",
    "OBJECT_ID": "24074B",
    "EPOCH": "2025-11-10T23:41:15.191232",
    "MEAN_MOTION": 15.27564059,
    "ECCENTRICITY": 0.0001267,
    "INCLINATION": 43.0012,
    "RA_OF_ASC_NODE": 290.0647,
    "ARG_OF_PERICENTER": 274.6824,
    "MEAN_ANOMALY": 85.3883,
    "EPHEMERIS_TYPE": 0,
    "CLASSIFICATION_TYPE": "U",
    "NORAD_CAT_ID": 59535,
    "ELEMENT_SET_NO": 999,
    "REV_AT_EPOCH": 8790,
    "BSTAR": 0.00023054,
    "MEAN_MOTION_DOT": 6.084e-05,
    "MEAN_MOTION_DDOT": 0.0,
    "TLE_LINE1": "1 59535U 24074B   25314.98698138  .00006084  00000+0  23054-3 0  9995",
    "TLE_LINE2": "2 59535  43.0012 290.0647 0001267 274.6824  85.3883 15.27564059 87909",
    "COMMENT": "Grouped by shell and plane from TLE"
  },
  {
    "OBJECT_NAME": "STARLINK-31721",
    "OBJECT_ID": "24074C",
    "EPOCH": "2025-11-11T06:00:53.019360",
    "MEAN_MOTION": 15.27593804,
    "ECCENTRICITY": 2.35e-05,
    "INCLINATION": 42.9998,
    "RA_OF_ASC_NODE": 292.1432,
    "ARG_OF_PERICENTER": 297.7939,
    "MEAN_ANOMALY": 62.2889,
    "EPHEMERIS_TYPE": 0,
    "CLASSIFICATION_TYPE": "U",
    "NORAD_CAT_ID": 59536,
    "ELEMENT_SET_NO": 999,
    "REV_AT_EPOCH": 8790,
    "BSTAR": 0.00013981,
    "MEAN_MOTION_DOT": 3.589e-05,
    "MEAN_MOTION_DDOT": 0.0,
    "TLE_LINE1": "1 59536U 24074C   25315.25061365  .00003589  00000+0  13981-3 0  9998",
    "TLE_LINE2": "2 59536  42.9998 292.1432 0000235 297.7939  62.2889 15.27593804 87903",
    "COMMENT": "Grouped by shell and plane from TLE"
  }
]